ONEWEB-0136             
1 47282U 20100AA  24365.98880420 -.00000329  00000+0 -94990-3 0  9994
2 47282  87.8885  96.8130 0001721 123.7198 236.4095 13.12445330194726
ONEWEB-0137             
1 47283U 20100AB  24366.70900784  .00000539  00000+0  14632-2 0  9997
2 47283  87.8879  96.6851 0001803 104.4272 255.7057 13.12444354194725
ONEWEB-0138             
1 47284U 20100AC  24366.53544594  .00000048  00000+0  99025-4 0  9998
2 47284  87.8881  96.7319 0001704 110.9139 249.2172 13.12443509194786
ONEWEB-0139             
1 47285U 20100AD  24366.19333166 -.00000058  00000+0 -19559-3 0  9998
2 47285  87.8887  96.7805 0001721 106.5020 253.6298 13.12442992194819
ONEWEB-0140             
1 47286U 20100AE  24366.52894375 -.00000232  00000+0 -68015-3 0  9995
2 47286  87.8882  96.7094 0001675 110.0208 250.1101 13.12441755194823
ONEWEB-0141             
1 47287U 20100AF  24366.72670690  .00000205  00000+0  53470-3 0  9997
2 47287  87.8880  96.6845 0001817 101.8070 258.3263 13.12440940194833
ONEWEB-0142             
1 47288U 20100AG  24366.54273856  .00000302  00000+0  80473-3 0  9992
2 47288  87.8883  96.7019 0001936 108.9305 251.2033 13.12446583194805
ONEWEB-0143             
1 47289U 20100AH  24366.49652002  .00000124  00000+0  31008-3 0  9993
2 47289  87.8885  96.7338 0001705 106.1040 254.0276 13.12442826194774
